LANDSAT 9               
1 49260U 21088A   24218.75027592  .00000944  00000+0  21963-3 0  9994
2 49260  98.2294 287.7311 0001376  89.3033 270.8323 14.57111767151900
